COSMOS 2503             
1 40420U 15009A   26068.69626972  .00002817  00000+0  19590-3 0  9998
2 40420  97.8437 123.7175 0015321 225.7450 134.2520 15.06275973603958
STARLINK-3809           
1 52851U 22062X   26068.17326614 -.00000058  00000+0  14440-4 0  9995
2 52851  53.2191  26.4370 0001282  90.8773 269.2366 15.08837001205849
